{
  "last_updated": "2025-11-26T17:44:08.776104",
  "satellites": {
    "DUTHSat-2": {
      "name": "DUTHSat-2",
      "norad_id": null,
      "tle": "1 64532U 25135E   25267.31645216  .00019005  00000-0  92304-3 0  9992\n2 64532  97.4549  20.3503 0005468  29.9791 330.1755 15.18487677 14466",
      "epoch": "2025-09-24T07:35:41.466624",
      "fetched_at": "2025-11-26T17:44:08.776692",
      "source": "manual"
    },
    "LAMARR": {
      "name": "LAMARR",
      "norad_id": null,
      "tle": "1 00000U 00000A   25330.80257208  .00000000  00000-0  00000+0 0  17\n2 00000  97.4387  36.2178 0001412  60.6544 292.4303 15.17674956 04",
      "epoch": "2025-11-26T19:15:42.227712",
      "fetched_at": "2025-11-26T17:44:08.777016",
      "source": "manual"
    },
    "DIRAC": {
      "name": "DIRAC",
      "norad_id": null,
      "tle": "1 00000U 00000A   25330.80257208  .00000000  00000-0  00000+0 0  17\n2 00000  97.4387  36.2261 0001406  61.4177 291.5406 15.17677328 01",
      "epoch": "2025-11-26T19:15:42.227712",
      "fetched_at": "2025-11-26T17:44:08.777573",
      "source": "manual"
    },
    "MICE-1": {
      "name": "MICE-1",
      "norad_id": null,
      "tle": "1 88674U 25256MIC   25330.80200264  .00000000  00000-0  32742-2 0  00012\n2 88674  097.4380  035.8810  0011919  086.6480 263.3260 15.18667901 000011",
      "epoch": null,
      "fetched_at": "2025-11-26T17:44:08.777770",
      "source": "manual"
    }
  },
  "fetch_log": [
    {
      "norad_id": "manual",
      "name": "DUTHSat-2",
      "status": "success",
      "timestamp": "2025-11-26T17:44:08.776776"
    },
    {
      "norad_id": "manual",
      "name": "LAMARR",
      "status": "success",
      "timestamp": "2025-11-26T17:44:08.777021"
    },
    {
      "norad_id": "manual",
      "name": "DIRAC",
      "status": "success",
      "timestamp": "2025-11-26T17:44:08.777577"
    },
    {
      "norad_id": "manual",
      "name": "MICE-1",
      "status": "success",
      "timestamp": "2025-11-26T17:44:08.777774"
    }
  ]
}